ONEWEB-0258             
1 48976U 21060K   25293.02996108 -.00000017  00000+0 -78252-4 0  9996
2 48976  87.8970 276.6329 0001967  86.3513 273.7843 13.16594089207996
ONEWEB-0259             
1 48977U 21060L   25293.02363078  .00000050  00000+0  96612-4 0  9996
2 48977  87.8980 276.6231 0001967  92.2079 267.9277 13.16593629208023
ONEWEB-0260             
1 48978U 21060M   25293.01492714  .00000017  00000+0  96383-5 0  9995
2 48978  87.8967 276.6448 0001464  84.0835 276.0463 13.16592260208006
ONEWEB-0261             
1 48979U 21060N   25293.13681133  .00000059  00000+0  12005-3 0  9997
2 48979  87.8969 276.6221 0001805 100.9613 259.1720 13.16592020208078
ONEWEB-0262             
1 48980U 21060P   25293.19303403  .00000019  00000+0  16163-4 0  9992
2 48980  87.8980 276.5789 0002179  91.9924 268.1457 13.16595094208048
ONEWEB-0263             
1 48981U 21060Q   25293.07270789  .00000052  00000+0  10188-3 0  9997
2 48981  87.8970 276.6215 0001942  99.9105 260.2245 13.16594072207995
ONEWEB-0264             
1 48982U 21060R   25293.18589899  .00000109  00000+0  25089-3 0  9994
2 48982  87.8971 276.6035 0001664  91.9807 268.1514 13.16596776208012
ONEWEB-0266             
1 48984U 21060T   25293.20728870 -.00000011  00000+0 -61814-4 0  9994
2 48984  87.8981 276.5796 0002058  85.8067 274.3299 13.16593869208004
